OBJECT_NAME,OBJECT_ID,EPOCH,MEAN_MOTION,ECCENTRICITY,INCLINATION,RA_OF_ASC_NODE,ARG_OF_PERICENTER,MEAN_ANOMALY,EPHEMERIS_TYPE,CLASSIFICATION_TYPE,NORAD_CAT_ID,ELEMENT_SET_NO,REV_AT_EPOCH,BSTAR,MEAN_MOTION_DOT,MEAN_MOTION_DDOT
COSMOS 2507 (RODNIK-S 13),2015-050A,2026-06-13T06:54:43.335648,12.42926594,.00103785,82.4923,82.0973,5.1408,354.9776,0,U,40920,999,48637,-.10147397E-3,-.4E-7,0
COSMOS 2508 (RODNIK-S 14),2015-050B,2026-06-13T05:49:53.949792,12.42913997,.00152931,82.4876,80.6320,35.0002,325.2080,0,U,40921,999,48635,-.21828625E-4,.7E-7,0
COSMOS 2509 (RODNIK-S 15),2015-050C,2026-06-13T06:19:02.761824,12.42883428,.00157954,82.4885,80.7213,50.9105,309.3376,0,U,40922,999,48639,-.14664128E-3,-.1E-6,0
LQSAT,2015-057A,2026-06-13T06:36:40.925952,14.76779024,.001556,97.6676,157.8436,287.7345,72.2167,0,U,40958,999,57473,.85879627E-4,.555E-5,0
LINGQIAO VIDEO A,2015-057B,2026-06-13T07:08:56.533920,14.77389992,.00152449,97.6617,159.2916,284.4926,75.4594,0,U,40959,999,57483,.17394007E-3,.1191E-4,0
LINGQIAO VIDEO B,2015-057C,2026-06-13T06:35:45.341376,14.77494395,.00154065,97.6583,160.4342,284.5240,75.4262,0,U,40960,999,57487,.11013339E-3,.738E-5,0
JILIN-1,2015-057D,2026-06-13T06:57:46.253088,14.78154575,.00153301,97.6507,163.8503,277.0936,82.8533,0,U,40961,999,57503,.11469129E-3,.783E-5,0
FOX-1A (AO-85),2015-058D,2026-06-12T17:23:06.617760,14.90949991,.01302253,64.7760,292.8522,58.2895,303.0834,0,U,40967,999,11290,.24338137E-3,.2656E-4,0
ELEKTRO-L 2,2015-074A,2026-06-12T23:23:49.807392,1.00270779,.00007363,6.6819,70.5757,255.3930,271.7863,0,U,41105,999,3846,0,-.109E-5,0
DAMPE,2015-078A,2026-06-13T05:54:41.615136,15.30776965,.00138204,97.4557,169.6939,89.3098,270.9727,0,U,41173,999,58394,.5684726E-4,.1617E-4,0
ORBCOMM FM114,2015-081A,2026-06-13T06:43:33.452256,14.58854678,.00022521,47.0060,20.4759,192.2086,167.8745,0,U,41179,999,55718,.12794477E-3,.433E-5,0
ORBCOMM FM110,2015-081D,2026-06-12T23:52:26.957280,14.58874646,.00026441,47.0031,21.2657,50.6863,309.4257,0,U,41182,999,55701,.17629289E-3,.662E-5,0
ORBCOMM FM112,2015-081F,2026-06-13T00:48:26.799264,14.58898569,.00034821,46.9999,289.8885,200.1139,159.9611,0,U,41184,999,55834,.15825039E-3,.577E-5,0
ORBCOMM FM113,2015-081G,2026-06-12T01:13:53.961600,14.58853293,.0001998,47.0017,294.9070,204.7602,155.3188,0,U,41185,999,55818,.10704795E-3,.335E-5,0
ORBCOMM FM108,2015-081J,2026-06-12T20:03:15.315552,14.58866418,.00027025,47.0056,202.7729,207.0496,153.0250,0,U,41187,999,55944,.11637138E-3,.379E-5,0
ORBCOMM FM117,2015-081K,2026-06-12T19:13:34.567392,14.58862442,.00032632,46.9997,201.5700,206.9100,153.1617,0,U,41188,999,55948,.11174432E-3,.357E-5,0
ORBCOMM FM116,2015-081L,2026-06-13T01:19:58.453824,14.58877372,.00007733,47.0032,290.1575,31.8666,328.2267,0,U,41189,999,55833,.16099969E-3,.59E-5,0
CHUBUSAT-2,2016-012B,2026-06-13T04:57:52.931232,15.20842357,.00088719,30.9980,347.5080,36.5525,323.5720,0,U,41338,999,56781,.26096766E-3,.6028E-4,0
CHUBUSAT-3,2016-012C,2026-06-13T04:41:03.367104,15.18525838,.00093026,31.0059,357.0722,24.4077,335.7003,0,U,41339,999,56759,.23175492E-3,.5019E-4,0
HORYU-4,2016-012D,2026-06-13T05:50:53.325600,15.92808659,.00042438,30.9840,107.9281,244.6601,115.3620,0,U,41340,999,57018,.112649E-2,.411178E-2,.59322033E-4
ZIYUAN 3-02 (ZY 3-02),2016-033A,2026-06-13T07:25:29.701056,15.21445714,.00113122,97.3842,240.1578,305.3419,54.6758,0,U,41556,999,55739,.23766776E-3,.5278E-4,0
CARTOSAT-2C,2016-040A,2026-06-13T07:21:01.532736,15.19291520,.0010242,97.4491,224.3374,143.8382,216.3547,0,U,41599,999,55312,.29424412E-3,.615E-4,0
LAPAN-A3,2016-040E,2026-06-13T06:35:56.462784,15.33081105,.0011331,97.1483,160.5490,38.8477,321.3578,0,U,41603,999,55421,.1087203E-3,.3405E-4,0
GAOFEN-3,2016-049A,2026-06-13T06:26:11.126112,14.42215674,.00013046,98.4012,172.1133,97.8813,262.2525,0,U,41727,999,51808,.81807678E-4,.226E-5,0
PRATHAM,2016-059A,2026-06-12T22:43:52.432896,14.67189761,.00300356,97.8323,160.9912,230.4750,129.3800,0,U,41783,999,51889,.10818438E-3,.566E-5,0
ALSAT-1N,2016-059G,2026-06-13T05:36:44.085312,14.69300781,.00251133,97.8007,167.7604,197.6265,162.4073,0,U,41789,999,51942,.14447094E-3,.809E-5,0
CAS-2T & KS-1Q,2016-066G,2026-06-13T05:21:47.057184,14.44682028,.03426761,98.3820,240.0050,141.4655,221.1545,0,U,41847,999,50422,.2357703E-3,.1632E-4,0
YUNHAI-1 01,2016-068A,2026-06-13T07:48:24.687936,14.32703420,.00063335,98.5832,175.3683,52.6206,307.5553,0,U,41857,999,50127,.16724486E-3,.411E-5,0
RESOURCESAT-2A,2016-074A,2026-06-13T06:29:02.010624,14.21614594,.00033671,98.7530,237.8064,91.2035,268.9528,0,U,41877,999,49374,.31545087E-4,.25E-6,0
