{"_default": { "13": {"norad_id": "41847", "name": "CZ-11 R/B", "tle1": "1 41847U 16066G   26164.22346131  .00001632  00000-0  23577-3 0  9993", "tle2": "2 41847  98.3820 240.0050 0342676 141.4655 221.1545 14.44682028504223", "object_type": "ROCKET_BODY", "criticality_score": 9.0, "last_updated": "2026-06-13T17:29:25.184973+00:00", "maneuver_count": 0, "owner": "N/A"}, "14": {"norad_id": "41789", "name": "ALSAT 1N", "tle1": "1 41789U 16059G   26164.23384358  .00000809  00000-0  14447-3 0  9995", "tle2": "2 41789  97.8007 167.7604 0025113 197.6265 162.4073 14.69300781519424", "object_type": "PAYLOAD", "criticality_score": 9.0, "last_updated": "2026-06-13T17:29:25.184973+00:00", "maneuver_count": 0, "owner": "N/A"}, "15": {"norad_id": "41599", "name": "CARTOSAT 2C", "tle1": "1 41599U 16040A   26164.30626774  .00006150  00000-0  29424-3 0  9999", "tle2": "2 41599  97.4491 224.3374 0010242 143.8382 216.3547 15.19291520553126", "object_type": "PAYLOAD", "criticality_score": 9.0, "last_updated": "2026-06-13T17:29:25.184973+00:00", "maneuver_count": 0, "owner": "N/A"}, "47": {"norad_id": "41339", "name": "CHUBUSAT 3", "tle1": "1 41339U 16012C   26164.19517786  .00005019  00000-0  23175-3 0  9999", "tle2": "2 41339  31.0059 357.0722 0009303  24.4077 335.7003 15.18525838567594", "object_type": "PAYLOAD", "criticality_score": 9.0, "last_updated": "2026-06-13T17:29:25.184973+00:00", "maneuver_count": 0, "owner": "N/A"}, "49": {"norad_id": "40967", "name": "FOX-1", "tle1": "1 40967U 15058D   26163.72438215  .00002656  00000-0  24338-3 0  9997", "tle2": "2 40967  64.7760 292.8522 0130225  58.2895 303.0834 14.90949991112907", "object_type": "PAYLOAD", "criticality_score": 9.0, "last_updated": "2026-06-13T17:29:25.184973+00:00", "maneuver_count": 0, "owner": "N/A"}, "50": {"norad_id": "40958", "name": "LQSAT", "tle1": "1 40958U 15057A   26164.27547368  .00000555  00000-0  85880-4 0  9993", "tle2": "2 40958  97.6676 157.8436 0015560 287.7345  72.2167 14.76779024574734", "object_type": "PAYLOAD", "criticality_score": 9.0, "last_updated": "2026-06-13T17:29:25.184973+00:00", "maneuver_count": 0, "owner": "N/A"}, "109": {"norad_id": "41783", "name": "PRATHAM", "tle1": "1 41783U 16059A   26163.94713464  .00000566  00000-0  10818-3 0  9998", "tle2": "2 41783  97.8323 160.9912 0030036 230.4750 129.3800 14.67189761518892", "object_type": "PAYLOAD", "criticality_score": 9.0, "last_updated": "2026-06-13T17:29:25.184973+00:00", "maneuver_count": 0, "owner": "N/A"}, "138": {"norad_id": "41603", "name": "LAPAN A3", "tle1": "1 41603U 16040E   26164.27495906  .00003405  00000-0  10872-3 0  9999", "tle2": "2 41603  97.1483 160.5490 0011331  38.8477 321.3578 15.33081105554212", "object_type": "PAYLOAD", "criticality_score": 9.0, "last_updated": "2026-06-13T17:29:25.184973+00:00", "maneuver_count": 0, "owner": "N/A"}, "139": {"norad_id": "41340", "name": "HORYU 4", "tle1": "1 41340U 16012D   26164.24367275  .00411178  59322-4  11265-2 0  9991", "tle2": "2 41340  30.9840 107.9281 0004244 244.6601 115.3620 15.92808659570185", "object_type": "PAYLOAD", "criticality_score": 9.0, "last_updated": "2026-06-13T17:29:25.184973+00:00", "maneuver_count": 0, "owner": "N/A"}, "140": {"norad_id": "41338", "name": "CHUBUSAT 2", "tle1": "1 41338U 16012B   26164.20686263  .00006028  00000-0  26097-3 0  9994", "tle2": "2 41338  30.9980 347.5080 0008872  36.5525 323.5720 15.20842357567814", "object_type": "PAYLOAD", "criticality_score": 9.0, "last_updated": "2026-06-13T17:29:25.184973+00:00", "maneuver_count": 0, "owner": "N/A"}, "187": {"norad_id": "40959", "name": "LINGQIAO VIDEO A", "tle1": "1 40959U 15057B   26164.29787655  .00001191  00000-0  17394-3 0  9992", "tle2": "2 40959  97.6617 159.2916 0015245 284.4926  75.4594 14.77389992574830", "object_type": "PAYLOAD", "criticality_score": 9.0, "last_updated": "2026-06-13T17:29:25.184973+00:00", "maneuver_count": 0, "owner": "N/A"}, "188": {"norad_id": "40960", "name": "LINGQIAO VIDEO B", "tle1": "1 40960U 15057C   26164.27483034  .00000738  00000-0  11013-3 0  9994", "tle2": "2 40960  97.6583 160.4342 0015407 284.5240  75.4262 14.77494395574871", "object_type": "PAYLOAD", "criticality_score": 9.0, "last_updated": "2026-06-13T17:29:25.184973+00:00", "maneuver_count": 0, "owner": "N/A"}, "190": {"norad_id": "40961", "name": "JILIN 1", "tle1": "1 40961U 15057D   26164.29011867  .00000783  00000-0  11469-3 0  9993", "tle2": "2 40961  97.6507 163.8503 0015330 277.0936  82.8533 14.78154575575034", "object_type": "PAYLOAD", "criticality_score": 9.0, "last_updated": "2026-06-13T17:29:25.184973+00:00", "maneuver_count": 0, "owner": "N/A"}, "369": {"norad_id": "41105", "name": "ELEKTRO-L 2", "tle1": "1 41105U 15074A   26163.97488203 -.00000109  00000-0  00000-0 0  9998", "tle2": "2 41105   6.6819  70.5757 0000736 255.3930 271.7863  1.00270779 38465", "object_type": "PAYLOAD", "criticality_score": 9.0, "last_updated": "2026-06-13T17:29:25.184973+00:00", "maneuver_count": 0, "owner": "N/A"}, "413": {"norad_id": "41556", "name": "ZY 3 2", "tle1": "1 41556U 16033A   26164.30937154  .00005278  00000-0  23767-3 0  9995", "tle2": "2 41556  97.3842 240.1578 0011312 305.3419  54.6758 15.21445714557394", "object_type": "PAYLOAD", "criticality_score": 9.0, "last_updated": "2026-06-13T17:29:25.184973+00:00", "maneuver_count": 0, "owner": "N/A"}, "436": {"norad_id": "41727", "name": "GAOFEN 3", "tle1": "1 41727U 16049A   26164.26818433  .00000226  00000-0  81808-4 0  9994", "tle2": "2 41727  98.4012 172.1133 0001305  97.8813 262.2525 14.42215674518082", "object_type": "PAYLOAD", "criticality_score": 9.0, "last_updated": "2026-06-13T17:29:25.184973+00:00", "maneuver_count": 0, "owner": "N/A"}, "464": {"norad_id": "41179", "name": "ORBCOMM FM 114", "tle1": "1 41179U 15081A   26164.28024829  .00000433  00000-0  12794-3 0  9997", "tle2": "2 41179  47.0060  20.4759 0002252 192.2086 167.8745 14.58854678557187", "object_type": "PAYLOAD", "criticality_score": 9.0, "last_updated": "2026-06-13T17:29:25.184973+00:00", "maneuver_count": 0, "owner": "N/A"}, "465": {"norad_id": "41182", "name": "ORBCOMM FM 110", "tle1": "1 41182U 15081D   26163.99475645  .00000662  00000-0  17629-3 0  9990", "tle2": "2 41182  47.0031  21.2657 0002644  50.6863 309.4257 14.58874646557011", "object_type": "PAYLOAD", "criticality_score": 9.0, "last_updated": "2026-06-13T17:29:25.184973+00:00", "maneuver_count": 0, "owner": "N/A"}, "466": {"norad_id": "41188", "name": "ORBCOMM FM 117", "tle1": "1 41188U 15081K   26163.80109453  .00000357  00000-0  11174-3 0  9997", "tle2": "2 41188  46.9997 201.5700 0003263 206.9100 153.1617 14.58862442559484", "object_type": "PAYLOAD", "criticality_score": 9.0, "last_updated": "2026-06-13T17:29:25.184973+00:00", "maneuver_count": 0, "owner": "N/A"}, "467": {"norad_id": "41189", "name": "ORBCOMM FM 116", "tle1": "1 41189U 15081L   26164.05553766  .00000590  00000-0  16100-3 0  9999", "tle2": "2 41189  47.0032 290.1575 0000773  31.8666 328.2267 14.58877372558333", "object_type": "PAYLOAD", "criticality_score": 9.0, "last_updated": "2026-06-13T17:29:25.184973+00:00", "maneuver_count": 0, "owner": "N/A"}, "468": {"norad_id": "41185", "name": "ORBCOMM FM 113", "tle1": "1 41185U 15081G   26163.05131900  .00000335  00000-0  10705-3 0  9998", "tle2": "2 41185  47.0017 294.9070 0001998 204.7602 155.3188 14.58853293558185", "object_type": "PAYLOAD", "criticality_score": 9.0, "last_updated": "2026-06-13T17:29:25.184973+00:00", "maneuver_count": 0, "owner": "N/A"}, "469": {"norad_id": "41184", "name": "ORBCOMM FM 112", "tle1": "1 41184U 15081F   26164.03364351  .00000577  00000-0  15825-3 0  9990", "tle2": "2 41184  46.9999 289.8885 0003482 200.1139 159.9611 14.58898569558347", "object_type": "PAYLOAD", "criticality_score": 9.0, "last_updated": "2026-06-13T17:29:25.184973+00:00", "maneuver_count": 0, "owner": "N/A"}, "470": {"norad_id": "41187", "name": "ORBCOMM FM 108", "tle1": "1 41187U 15081J   26163.83559393  .00000379  00000-0  11637-3 0  9999", "tle2": "2 41187  47.0056 202.7729 0002703 207.0496 153.0250 14.58866418559448", "object_type": "PAYLOAD", "criticality_score": 9.0, "last_updated": "2026-06-13T17:29:25.184973+00:00", "maneuver_count": 0, "owner": "N/A"}, "476": {"norad_id": "41877", "name": "RESOURCESAT 2A", "tle1": "1 41877U 16074A   26164.27016216  .00000025  00000-0  31545-4 0  9998", "tle2": "2 41877  98.7530 237.8064 0003367  91.2035 268.9528 14.21614594493744", "object_type": "PAYLOAD", "criticality_score": 9.0, "last_updated": "2026-06-13T17:29:25.184973+00:00", "maneuver_count": 0, "owner": "N/A"}, "605": {"norad_id": "40920", "name": "COSMOS 2507", "tle1": "1 40920U 15050A   26164.28800157 -.00000004  00000-0 -10147-3 0  9998", "tle2": "2 40920  82.4923  82.0973 0010378   5.1408 354.9776 12.42926594486374", "object_type": "PAYLOAD", "criticality_score": 9.0, "last_updated": "2026-06-13T17:29:25.184973+00:00", "maneuver_count": 0, "owner": "N/A"}, "606": {"norad_id": "40921", "name": "COSMOS 2508", "tle1": "1 40921U 15050B   26164.24298553  .00000007  00000-0 -21829-4 0  9998", "tle2": "2 40921  82.4876  80.6320 0015293  35.0002 325.2080 12.42913997486355", "object_type": "PAYLOAD", "criticality_score": 9.0, "last_updated": "2026-06-13T17:29:25.184973+00:00", "maneuver_count": 0, "owner": "N/A"}, "607": {"norad_id": "40922", "name": "COSMOS 2509", "tle1": "1 40922U 15050C   26164.26322641 -.00000010  00000-0 -14664-3 0  9990", "tle2": "2 40922  82.4885  80.7213 0015795  50.9105 309.3376 12.42883428486395", "object_type": "PAYLOAD", "criticality_score": 9.0, "last_updated": "2026-06-13T17:29:25.184973+00:00", "maneuver_count": 0, "owner": "N/A"}, "631": {"norad_id": "41857", "name": "YUNHAI 1", "tle1": "1 41857U 16068A   26164.32528574  .00000411  00000-0  16724-3 0  9990", "tle2": "2 41857  98.5832 175.3683 0006333  52.6206 307.5553 14.32703420501270", "object_type": "PAYLOAD", "criticality_score": 9.0, "last_updated": "2026-06-13T17:29:25.184973+00:00", "maneuver_count": 0, "owner": "N/A"}, "664": {"norad_id": "41173", "name": "DAMPE", "tle1": "1 41173U 15078A   26164.24631499  .00001617  00000-0  56847-4 0  9993", "tle2": "2 41173  97.4557 169.6939 0013820  89.3098 270.9727 15.30776965583941", "object_type": "PAYLOAD", "criticality_score": 9.0, "last_updated": "2026-06-13T17:29:25.184973+00:00", "maneuver_count": 0, "owner": "N/A"}}}